{"type": "FeatureCollection", "features": [ {"type": "Feature", "properties": {"norad_id": 38552, "name": "METEOSAT-10 (MSG-3)", "group": "weather", "lat": 2.6512353212867494, "lon": -157.03289541882828, "alt_km": 35786.18604811956, "timestamp": "2025-12-20T07:33:50.443496+00:00", "meta": {"OBJECT_NAME": "METEOSAT-10 (MSG-3)", "OBJECT_ID": "2012-035B", "EPOCH": "2025-12-19T08:07:49.924128", "MEAN_MOTION": 1.00276524, "ECCENTRICITY": 6.93e-05, "INCLINATION": 4.2433, "RA_OF_ASC_NODE": 61.706, "ARG_OF_PERICENTER": 270.066, "MEAN_ANOMALY": 238.6463, "EPHEMERIS_TYPE": 0, "CLASSIFICATION_TYPE": "U", "NORAD_CAT_ID": 38552, "ELEMENT_SET_NO": 999, "REV_AT_EPOCH": 4905, "BSTAR": 0, "MEAN_MOTION_DOT": 1.7e-07, "MEAN_MOTION_DDOT": 0}, "tle": {"line1": "1 38552U 12035B   25353.33877227  .00000017  00000+0  00000+0 0  9997", "line2": "2 38552   4.2433  61.7060 0000693 270.0660 238.6463  1.00276524 49057"}}, "geometry": {"type": "Point", "coordinates": [-157.03289541882828, 2.6512353212867494]}}, {"type": "Feature", "properties": {"norad_id": 38771, "name": "METOP-B", "group": "weather", "lat": -49.355009822878976, "lon": 54.39403838292761, "alt_km": 829.6952946800584, "timestamp": "2025-12-20T07:33:50.443525+00:00", "meta": {"OBJECT_NAME": "METOP-B", "OBJECT_ID": "2012-049A", "EPOCH": "2025-12-19T21:39:47.095488", "MEAN_MOTION": 14.21410919, "ECCENTRICITY": 0.00031592, "INCLINATION": 98.6789, "RA_OF_ASC_NODE": 43.7397, "ARG_OF_PERICENTER": 128.9434, "MEAN_ANOMALY": 231.2026, "EPHEMERIS_TYPE": 0, "CLASSIFICATION_TYPE": "U", "NORAD_CAT_ID": 38771, "ELEMENT_SET_NO": 999, "REV_AT_EPOCH": 68779, "BSTAR": 6.5931197e-05, "MEAN_MOTION_DOT": 1.01e-06, "MEAN_MOTION_DDOT": 0}, "tle": {"line1": "1 38771U 12049A   25353.90262842  .00000101  00000+0  65931-4 0  9992", "line2": "2 38771  98.6789  43.7397 0003159 128.9434 231.2026 14.21410919687792"}}, "geometry": {"type": "Point", "coordinates": [54.39403838292761, -49.355009822878976]}}, {"type": "Feature", "properties": {"norad_id": 39216, "name": "INSAT-3D", "group": "weather", "lat": -1.360784906161106, "lon": -27.951188036417378, "alt_km": 35786.94110541296, "timestamp": "2025-12-20T07:33:50.443539+00:00", "meta": {"OBJECT_NAME": "INSAT-3D", "OBJECT_ID": "2013-038B", "EPOCH": "2025-12-17T17:21:59.330304", "MEAN_MOTION": 1.00267779, "ECCENTRICITY": 0.00012009, "INCLINATION": 1.4572, "RA_OF_ASC_NODE": 84.9421, "ARG_OF_PERICENTER": 166.0293, "MEAN_ANOMALY": 225.6028, "EPHEMERIS_TYPE": 0, "CLASSIFICATION_TYPE": "U", "NORAD_CAT_ID": 39216, "ELEMENT_SET_NO": 999, "REV_AT_EPOCH": 4526, "BSTAR": 0, "MEAN_MOTION_DOT": -3.16e-06, "MEAN_MOTION_DDOT": 0}, "tle": {"line1": "1 39216U 13038B   25351.72360336 -.00000316  00000+0  00000+0 0  9991", "line2": "2 39216   1.4572  84.9421 0001200 166.0293 225.6028  1.00267779 45261"}}, "geometry": {"type": "Point", "coordinates": [-27.951188036417378, -1.360784906161106]}}, {"type": "Feature", "properties": {"norad_id": 39260, "name": "FENGYUN 3C", "group": "weather", "lat": 40.49975675070024, "lon": -35.6928688337643, "alt_km": 843.9139172657815, "timestamp": "2025-12-20T07:33:50.443552+00:00", "meta": {"OBJECT_NAME": "FENGYUN 3C", "OBJECT_ID": "2013-052A", "EPOCH": "2025-12-19T22:53:20.779872", "MEAN_MOTION": 14.15698427, "ECCENTRICITY": 0.00146891, "INCLINATION": 98.477, "RA_OF_ASC_NODE": 331.2811, "ARG_OF_PERICENTER": 175.0187, "MEAN_ANOMALY": 185.1136, "EPHEMERIS_TYPE": 0, "CLASSIFICATION_TYPE": "U", "NORAD_CAT_ID": 39260, "ELEMENT_SET_NO": 999, "REV_AT_EPOCH": 63320, "BSTAR": 4.695231e-05, "MEAN_MOTION_DOT": 5.1e-07, "MEAN_MOTION_DDOT": 0}, "tle": {"line1": "1 39260U 13052A   25353.95371273  .00000051  00000+0  46952-4 0  9991", "line2": "2 39260  98.4770 331.2811 0014689 175.0187 185.1136 14.15698427633209"}}, "geometry": {"type": "Point", "coordinates": [-35.6928688337643, 40.49975675070024]}}, {"type": "Feature", "properties": {"norad_id": 40069, "name": "METEOR-M 2", "group": "weather", "lat": 2.2855689287902443, "lon": 151.950788282221, "alt_km": 819.4514148643566, "timestamp": "2025-12-20T07:33:50.443563+00:00", "meta": {"OBJECT_NAME": "METEOR-M 2", "OBJECT_ID": "2014-037A", "EPOCH": "2025-12-19T22:17:02.108832", "MEAN_MOTION": 14.2138927, "ECCENTRICITY": 0.00053718, "INCLINATION": 98.49, "RA_OF_ASC_NODE": 331.2374, "ARG_OF_PERICENTER": 187.0414, "MEAN_ANOMALY": 173.069, "EPHEMERIS_TYPE": 0, "CLASSIFICATION_TYPE": "U", "NORAD_CAT_ID": 40069, "ELEMENT_SET_NO": 999, "REV_AT_EPOCH": 59385, "BSTAR": 9.7285837e-05, "MEAN_MOTION_DOT": 1.71e-06, "MEAN_MOTION_DDOT": 0}, "tle": {"line1": "1 40069U 14037A   25353.92849663  .00000171  00000+0  97286-4 0  9993", "line2": "2 40069  98.4900 331.2374 0005371 187.0414 173.0690 14.21389270593858"}}, "geometry": {"type": "Point", "coordinates": [151.950788282221, 2.2855689287902443]}}, {"type": "Feature", "properties": {"norad_id": 40267, "name": "HIMAWARI-8", "group": "weather", "lat": -0.009195496263212572, "lon": -16.722621873856813, "alt_km": 35783.876532393944, "timestamp": "2025-12-20T07:33:50.443576+00:00", "meta": {"OBJECT_NAME": "HIMAWARI-8", "OBJECT_ID": "2014-060A", "EPOCH": "2025-12-19T19:04:03.567072", "MEAN_MOTION": 1.00271352, "ECCENTRICITY": 8.593e-05, "INCLINATION": 0.0293, "RA_OF_ASC_NODE": 121.6816, "ARG_OF_PERICENTER": 172.8726, "MEAN_ANOMALY": 220.7679, "EPHEMERIS_TYPE": 0, "CLASSIFICATION_TYPE": "U", "NORAD_CAT_ID": 40267, "ELEMENT_SET_NO": 999, "REV_AT_EPOCH": 4096, "BSTAR": 0, "MEAN_MOTION_DOT": -2.51e-06, "MEAN_MOTION_DDOT": 0}, "tle": {"line1": "1 40267U 14060A   25353.79448573 -.00000251  00000+0  00000+0 0  9992", "line2": "2 40267   0.0293 121.6816 0000859 172.8726 220.7679  1.00271352 40968"}}, "geometry": {"type": "Point", "coordinates": [-16.722621873856813, -0.009195496263212572]}}, {"type": "Feature", "properties": {"norad_id": 40367, "name": "FENGYUN 2G", "group": "weather", "lat": -3.80849762026565, "lon": -58.20959022846062, "alt_km": 35779.11567689321, "timestamp": "2025-12-20T07:33:50.443588+00:00", "meta": {"OBJECT_NAME": "FENGYUN 2G", "OBJECT_ID": "2014-090A", "EPOCH": "2025-12-19T18:56:11.651136", "MEAN_MOTION": 1.00261653, "ECCENTRICITY": 0.00026778, "INCLINATION": 5.1853, "RA_OF_ASC_NODE": 75.0175, "ARG_OF_PERICENTER": 203.1106, "MEAN_ANOMALY": 193.8582, "EPHEMERIS_TYPE": 0, "CLASSIFICATION_TYPE": "U", "NORAD_CAT_ID": 40367, "ELEMENT_SET_NO": 999, "REV_AT_EPOCH": 4020, "BSTAR": 0, "MEAN_MOTION_DOT": -2.79e-06, "MEAN_MOTION_DDOT": 0}, "tle": {"line1": "1 40367U 14090A   25353.78902374 -.00000279  00000+0  00000+0 0  9999", "line2": "2 40367   5.1853  75.0175 0002677 203.1106 193.8582  1.00261653 40200"}}, "geometry": {"type": "Point", "coordinates": [-58.20959022846062, -3.80849762026565]}}, {"type": "Feature", "properties": {"norad_id": 40732, "name": "METEOSAT-11 (MSG-4)", "group": "weather", "lat": 1.7629140230844826, "lon": -148.15872826446127, "alt_km": 35782.8630388427, "timestamp": "2025-12-20T07:33:50.443601+00:00", "meta": {"OBJECT_NAME": "METEOSAT-11 (MSG-4)", "OBJECT_ID": "2015-034A", "EPOCH": "2025-12-19T20:09:19.816416", "MEAN_MOTION": 1.00269713, "ECCENTRICITY": 8.424e-05, "INCLINATION": 2.7539, "RA_OF_ASC_NODE": 71.9834, "ARG_OF_PERICENTER": 136.058, "MEAN_ANOMALY": 192.179, "EPHEMERIS_TYPE": 0, "CLASSIFICATION_TYPE": "U", "NORAD_CAT_ID": 40732, "ELEMENT_SET_NO": 999, "REV_AT_EPOCH": 541, "BSTAR": 0, "MEAN_MOTION_DOT": 8.3e-07, "MEAN_MOTION_DDOT": 0}, "tle": {"line1": "1 40732U 15034A   25353.83981269  .00000083  00000+0  00000+0 0  9992", "line2": "2 40732   2.7539  71.9834 0000842 136.0580 192.1790  1.00269713  5411"}}, "geometry": {"type": "Point", "coordinates": [-148.15872826446127, 1.7629140230844826]}}, {"type": "Feature", "properties": {"norad_id": 41105, "name": "ELEKTRO-L 2", "group": "weather", "lat": 5.640732219788099, "lon": -171.77432725235326, "alt_km": 35786.1266601388, "timestamp": "2025-12-20T07:33:50.443614+00:00", "meta": {"OBJECT_NAME": "ELEKTRO-L 2", "OBJECT_ID": "2015-074A", "EPOCH": "2025-12-19T09:46:17.993280", "MEAN_MOTION": 1.00272637, "ECCENTRICITY": 0.0003545, "INCLINATION": 6.2415, "RA_OF_ASC_NODE": 72.7491, "ARG_OF_PERICENTER": 209.2952, "MEAN_ANOMALY": 298.3067, "EPHEMERIS_TYPE": 0, "CLASSIFICATION_TYPE": "U", "NORAD_CAT_ID": 41105, "ELEMENT_SET_NO": 999, "REV_AT_EPOCH": 3670, "BSTAR": 0, "MEAN_MOTION_DOT": -9.8e-07, "MEAN_MOTION_DDOT": 0}, "tle": {"line1": "1 41105U 15074A   25353.40715270 -.00000098  00000+0  00000+0 0  9998", "line2": "2 41105   6.2415  72.7491 0003545 209.2952 298.3067  1.00272637 36706"}}, "geometry": {"type": "Point", "coordinates": [-171.77432725235326, 5.640732219788099]}}, {"type": "Feature", "properties": {"norad_id": 41752, "name": "INSAT-3DR", "group": "weather", "lat": -0.04543575858251741, "lon": -83.39528917124645, "alt_km": 35726.45721788967, "timestamp": "2025-12-20T07:33:50.443626+00:00", "meta": {"OBJECT_NAME": "INSAT-3DR", "OBJECT_ID": "2016-054A", "EPOCH": "2025-12-19T19:07:12.495360", "MEAN_MOTION": 1.00271614, "ECCENTRICITY": 0.00141341, "INCLINATION": 0.1091, "RA_OF_ASC_NODE": 86.4186, "ARG_OF_PERICENTER": 185.1345, "MEAN_ANOMALY": 177.8779, "EPHEMERIS_TYPE": 0, "CLASSIFICATION_TYPE": "U", "NORAD_CAT_ID": 41752, "ELEMENT_SET_NO": 999, "REV_AT_EPOCH": 3402, "BSTAR": 0, "MEAN_MOTION_DOT": -5.3e-07, "MEAN_MOTION_DDOT": 0}, "tle": {"line1": "1 41752U 16054A   25353.79667240 -.00000053  00000+0  00000+0 0  9991", "line2": "2 41752   0.1091  86.4186 0014134 185.1345 177.8779  1.00271614 34022"}}, "geometry": {"type": "Point", "coordinates": [-83.39528917124645, -0.04543575858251741]}}]}